NORAD_CAT_ID,OBJECT_NAME,OBJECT_TYPE,EPOCH,MEAN_MOTION,ECCENTRICITY,INCLINATION,RA_OF_ASC_NODE,ARG_OF_PERICENTER,MEAN_ANOMALY,BSTAR,MEAN_MOTION_DOT,MEAN_MOTION_DDOT,TLE_LINE0,TLE_LINE1,TLE_LINE2,SEMIMAJOR_AXIS,PERIOD,APOGEE,PERIGEE,DECAYED
53988.0,STARLINK-5113,PAYLOAD,2023-03-18 15:24:27,15.08844785,0.000156,53.2155,54.1809,90.1947,269.9224,2.1379e-05,5.2e-07,0.0,0 STARLINK-5113,1 53988U 22125AA  23077.64198462  .00000052  00000-0  21379-4 0  9997,2 53988  53.2155  54.1809 0001560  90.1947 269.9224 15.08844785 25422,6917.866,95.437,540.81,538.652,0.0
53988.0,STARLINK-5113,PAYLOAD,2023-03-19 05:42:55,15.0883982,0.0001256,53.2158,51.5039,91.2823,268.8313,-6.6466e-05,-1.346e-05,0.0,0 STARLINK-5113,1 53988U 22125AA  23078.23814561 -.00001346  00000-0 -66466-4 0  9993,2 53988  53.2158  51.5039 0001256  91.2823 268.8313 15.08839820 25430,6917.881,95.438,540.615,538.877,0.0
53988.0,STARLINK-5113,PAYLOAD,2023-03-19 15:15:14,15.08839199,0.0001183,53.2162,49.718,78.349,281.7635,-1.826e-05,-5.78e-06,0.0,0 STARLINK-5113,1 53988U 22125AA  23078.63558765 -.00000578  00000-0 -18260-4 0  9993,2 53988  53.2162  49.7180 0001183  78.3490 281.7635 15.08839199 25571,6917.883,95.438,540.566,538.929,0.0
53988.0,STARLINK-5113,PAYLOAD,2023-03-19 21:36:47,15.08836285,0.0001327,53.2171,48.5282,85.0125,275.1018,1.3048e-05,-8e-07,0.0,0 STARLINK-5113,1 53988U 22125AA  23078.90055054 -.00000080  00000-0  13048-4 0  9992,2 53988  53.2171  48.5282 0001327  85.0125 275.1018 15.08836285 25532,6917.892,95.438,540.675,538.839,0.0
53988.0,STARLINK-5113,PAYLOAD,2023-03-20 07:09:05,15.08847966,0.0001114,53.218,46.7446,79.8883,280.2234,9.2394e-05,1.183e-05,0.0,0 STARLINK-5113,1 53988U 22125AA  23079.29798555  .00001183  00000-0  92394-4 0  9990,2 53988  53.2180  46.7446 0001114  79.8883 280.2234 15.08847966 25591,6917.856,95.437,540.492,538.95,0.0
53988.0,STARLINK-5113,PAYLOAD,2023-03-20 15:06:01,15.08848049,0.0001196,53.2172,45.2565,68.1211,291.9908,-0.00028789,-4.868e-05,0.0,0 STARLINK-5113,1 53988U 22125AA  23079.62918329 -.00004868  00000-0 -28789-3 0  9991,2 53988  53.2172  45.2565 0001196  68.1211 291.9908 15.08848049 25640,6917.856,95.437,540.548,538.893,0.0
53988.0,STARLINK-5113,PAYLOAD,2023-03-21 03:49:06,15.08842456,0.0001027,53.2172,42.8761,81.1015,279.0094,0.00018388,2.64e-05,0.0,0 STARLINK-5113,1 53988U 22125AA  23080.15910865  .00002640  00000-0  18388-3 0  9996,2 53988  53.2172  42.8761 0001027  81.1015 279.0094 15.08842456 25808,6917.873,95.437,540.448,539.027,0.0
53988.0,STARLINK-5113,PAYLOAD,2023-03-21 06:59:52,15.08850881,0.0001106,53.216,42.2808,89.1405,270.9714,0.00022993,3.374e-05,0.0,0 STARLINK-5113,1 53988U 22125AA  23080.29158348  .00003374  00000-0  22993-3 0  9993,2 53988  53.2160  42.2808 0001106  89.1405 270.9714 15.08850881 25822,6917.847,95.437,540.477,538.947,0.0
53988.0,STARLINK-5113,PAYLOAD,2023-03-22 03:39:54,15.08843089,0.0001189,53.2178,38.4161,95.9819,264.1308,6.3001e-05,7.15e-06,0.0,0 STARLINK-5113,1 53988U 22125AA  23081.15270960  .00000715  00000-0  63001-4 0  9996,2 53988  53.2178  38.4161 0001189  95.9819 264.1308 15.08843089 25955,6917.871,95.437,540.558,538.913,0.0
53988.0,STARLINK-5113,PAYLOAD,2023-03-23 06:41:26,15.08858091,0.000116,53.2166,33.3632,79.93,280.1823,0.00036504,5.529e-05,0.0,0 STARLINK-5113,1 53988U 22125AA  23082.27878203  .00005529  00000-0  36504-3 0  9999,2 53988  53.2166  33.3632 0001160  79.9300 280.1823 15.08858091 26124,6917.825,95.436,540.493,538.888,0.0
53988.0,STARLINK-5113,PAYLOAD,2023-03-24 03:21:27,15.08868759,0.0001082,53.2163,29.4988,99.657,260.4544,0.00059289,9.168e-05,0.0,0 STARLINK-5113,1 53988U 22125AA  23083.13990042  .00009168  00000-0  59289-3 0  9999,2 53988  53.2163  29.4988 0001082  99.6570 260.4544 15.08868759 26259,6917.792,95.436,540.406,538.909,0.0
53988.0,STARLINK-5113,PAYLOAD,2023-03-24 06:32:12,15.08896282,0.0001041,53.2171,28.9018,97.0756,263.0355,0.0011614,0.00018272,0.0,0 STARLINK-5113,1 53988U 22125AA  23083.27236899  .00018272  00000-0  11614-2 0  9992,2 53988  53.2171  28.9018 0001041  97.0756 263.0355 15.08896282 26272,6917.708,95.434,540.293,538.853,0.0
53988.0,STARLINK-5113,PAYLOAD,2023-03-25 03:12:14,15.08846519,0.0001084,53.2168,25.0377,79.6551,280.4563,-1.058e-05,-4.56e-06,0.0,0 STARLINK-5113,1 53988U 22125AA  23084.13349864 -.00000456  00000-0 -10580-4 0  9995,2 53988  53.2168  25.0377 0001084  79.6551 280.4563 15.08846519 26407,6917.86,95.437,540.475,538.976,0.0
53988.0,STARLINK-5113,PAYLOAD,2023-03-25 06:23:00,15.08853737,0.000122,53.2175,24.4416,75.5353,284.5774,0.00015304,2.149e-05,0.0,0 STARLINK-5113,1 53988U 22125AA  23084.26597598  .00002149  00000-0  15304-3 0  9995,2 53988  53.2175  24.4416 0001220  75.5353 284.5774 15.08853737 26420,6917.838,95.437,540.547,538.859,0.0
53988.0,STARLINK-5113,PAYLOAD,2023-03-26 04:38:25,15.08830266,0.0001252,53.2177,20.281,88.9674,271.1462,-0.0001284,-2.33e-05,0.0,0 STARLINK-5113,1 53988U 22125AA  23085.19335049 -.00002330  00000-0 -12840-3 0  9995,2 53988  53.2177  20.2810 0001252  88.9674 271.1462 15.08830266 26566,6917.91,95.438,540.641,538.909,0.0
53988.0,STARLINK-5113,PAYLOAD,2023-03-27 04:29:12,15.08848911,0.0001178,53.2176,15.8187,86.5268,273.5859,0.00042007,6.405e-05,0.0,0 STARLINK-5113,1 53988U 22125AA  23086.18695058  .00006405  00000-0  42007-3 0  9997,2 53988  53.2176  15.8187 0001178  86.5268 273.5859 15.08848911 26711,6917.853,95.437,540.533,538.903,0.0
53988.0,STARLINK-5113,PAYLOAD,2023-03-28 04:19:59,15.08856188,0.0001285,53.2171,11.3569,93.8222,266.2917,0.00046024,7.048e-05,0.0,0 STARLINK-5113,1 53988U 22125AA  23087.18054931  .00007048  00000-0  46024-3 0  9994,2 53988  53.2171  11.3569 0001285  93.8222 266.2917 15.08856188 26866,6917.831,95.437,540.585,538.807,0.0
53988.0,STARLINK-5113,PAYLOAD,2023-03-29 01:00:00,15.08846866,0.0001251,53.2168,7.4925,84.5534,275.5601,7.4385e-05,8.96e-06,0.0,0 STARLINK-5113,1 53988U 22125AA  23088.04167121  .00000896  00000-0  74385-4 0  9992,2 53988  53.2168   7.4925 0001251  84.5534 275.5601 15.08846866 26999,6917.859,95.437,540.59,538.859,0.0
53988.0,STARLINK-5113,PAYLOAD,2023-03-29 04:10:46,15.08849696,0.000127,53.2172,6.8986,82.8802,277.2335,0.00016151,2.284e-05,0.0,0 STARLINK-5113,1 53988U 22125AA  23088.17415043  .00002284  00000-0  16151-3 0  9994,2 53988  53.2172   6.8986 0001270  82.8802 277.2335 15.08849696 26935,6917.851,95.437,540.594,538.837,0.0
53988.0,STARLINK-5113,PAYLOAD,2023-03-30 04:01:33,15.08848493,0.0001083,53.2173,2.4369,104.1005,256.0108,0.00041689,6.355e-05,0.0,0 STARLINK-5113,1 53988U 22125AA  23089.16775291  .00006355  00000-0  41689-3 0  9995,2 53988  53.2173   2.4369 0001083 104.1005 256.0108 15.08848493 27161,6917.854,95.437,540.469,538.97,0.0
53988.0,STARLINK-5113,PAYLOAD,2023-04-01 02:07:45,15.08841021,0.0001064,53.2171,353.8142,84.5598,275.5516,8.1941e-05,1.017e-05,0.0,0 STARLINK-5113,1 53988U 22125AA  23091.08871761  .00001017  00000-0  81941-4 0  9994,2 53988  53.2171 353.8142 0001064  84.5598 275.5516 15.08841021 27459,6917.877,95.437,540.478,539.006,0.0
53988.0,STARLINK-5113,PAYLOAD,2023-04-02 00:23:09,15.08836515,0.0001192,53.2181,349.6543,101.011,259.1017,-2.366e-05,-6.64e-06,0.0,0 STARLINK-5113,1 53988U 22125AA  23092.01608288 -.00000664  00000-0 -23660-4 0  9993,2 53988  53.2181 349.6543 0001192 101.0110 259.1017 15.08836515 27596,6917.891,95.438,540.581,538.931,0.0
53988.0,STARLINK-5113,PAYLOAD,2023-04-02 21:03:11,15.08831772,0.0001127,53.2179,345.787,76.3615,283.7503,6.0364e-05,6.73e-06,0.0,0 STARLINK-5113,1 53988U 22125AA  23092.87721072  .00000673  00000-0  60364-4 0  9994,2 53988  53.2179 345.7870 0001127  76.3615 283.7503 15.08831772 27644,6917.906,95.438,540.55,538.991,0.0
53988.0,STARLINK-5113,PAYLOAD,2023-04-03 01:49:20,15.08833952,0.000118,53.2176,344.8951,79.1442,280.9683,8.0165e-05,9.88e-06,0.0,0 STARLINK-5113,1 53988U 22125AA  23093.07593047  .00000988  00000-0  80165-4 0  9996,2 53988  53.2176 344.8951 0001180  79.1442 280.9683 15.08833952 27751,6917.899,95.438,540.58,538.948,0.0
53988.0,STARLINK-5113,PAYLOAD,2023-04-03 16:07:48,15.08838809,0.0001212,53.2169,342.217,87.7888,272.3243,0.00016288,2.305e-05,0.0,0 STARLINK-5113,1 53988U 22125AA  23093.67208954  .00002305  00000-0  16288-3 0  9991,2 53988  53.2169 342.2170 0001212  87.7888 272.3243 15.08838809 27767,6917.884,95.438,540.587,538.911,0.0
53988.0,STARLINK-5113,PAYLOAD,2023-04-04 03:15:29,15.08851635,0.000129,53.2169,340.1365,92.7389,267.3751,0.00041411,6.311e-05,0.0,0 STARLINK-5113,1 53988U 22125AA  23094.13576325  .00006311  00000-0  41411-3 0  9990,2 53988  53.2169 340.1365 0001290  92.7389 267.3751 15.08851635 27915,6917.845,95.437,540.602,538.817,0.0
53988.0,STARLINK-5113,PAYLOAD,2023-04-04 20:44:44,15.08841241,0.0001641,53.2165,336.8652,77.9686,282.149,0.00010311,1.353e-05,0.0,0 STARLINK-5113,1 53988U 22125AA  23094.86440693  .00001353  00000-0  10311-3 0  9994,2 53988  53.2165 336.8652 0001641  77.9686 282.1490 15.08841241 27947,6917.877,95.437,540.877,538.606,0.0
53988.0,STARLINK-5113,PAYLOAD,2023-04-05 01:30:54,15.08844793,0.000151,53.2166,335.9729,77.927,282.1891,0.00018006,2.579e-05,0.0,0 STARLINK-5113,1 53988U 22125AA  23095.06312742  .00002579  00000-0  18006-3 0  9990,2 53988  53.2166 335.9729 0001510  77.9270 282.1891 15.08844793 28050,6917.866,95.437,540.775,538.686,0.0
53988.0,STARLINK-5113,PAYLOAD,2023-04-05 20:35:31,15.08844138,0.000128,53.218,332.4008,102.1047,258.0088,7.1211e-05,8.46e-06,0.0,0 STARLINK-5113,1 53988U 22125AA  23095.85800527  .00000846  00000-0  71211-4 0  9993,2 53988  53.2180 332.4008 0001280 102.1047 258.0088 15.08844138 28092,6917.868,95.437,540.618,538.847,0.0
53988.0,STARLINK-5113,PAYLOAD,2023-04-06 01:21:40,15.08849477,0.0001343,53.216,331.5129,81.0925,279.0219,8.8139e-05,1.115e-05,0.0,0 STARLINK-5113,1 53988U 22125AA  23096.05672188  .00001115  00000-0  88139-4 0  9993,2 53988  53.2160 331.5129 0001343  81.0925 279.0219 15.08849477 28128,6917.851,95.437,540.645,538.787,0.0
